{
  "type": "FeatureCollection",
  "features": [
    {
      "type": "Feature",
      "properties": {
        "norad_id": 34571,
        "name": "COSMOS 2251 DEB",
        "group": "cosmos-2251-debris",
        "lat": -34.84115159841862,
        "lon": 9.374380942252968,
        "alt_km": 688.5650348424579,
        "timestamp": "2025-12-15T04:01:20.846626+00:00",
        "meta_object_name": "COSMOS 2251 DEB",
        "meta_object_id": "1993-036VH",
        "meta_epoch": "2025-12-13T22:51:12.596832",
        "meta_mean_motion": 14.4883551,
        "meta_eccentricity": 0.00658871,
        "meta_inclination": 74.0384,
        "meta_ra_of_asc_node": 180.1597,
        "meta_arg_of_pericenter": 214.8223,
        "meta_mean_anomaly": 144.8618,
        "meta_ephemeris_type": 0,
        "meta_classification_type": "U",
        "meta_norad_cat_id": 34571,
        "meta_element_set_no": 999,
        "meta_rev_at_epoch": 87311,
        "meta_bstar": 0.0023505364,
        "meta_mean_motion_dot": 9.115e-05,
        "meta_mean_motion_ddot": 0,
        "tle_line1": "1 34571U 93036VH  25347.95222913  .00009115  00000+0  23505-2 0  9997",
        "tle_line2": "2 34571  74.0384 180.1597 0065887 214.8223 144.8618 14.48835510873116"
      },
      "geometry": {
        "type": "Point",
        "coordinates": [
          9.374380942252968,
          -34.84115159841862
        ]
      }
    },
    {
      "type": "Feature",
      "properties": {
        "norad_id": 34572,
        "name": "COSMOS 2251 DEB",
        "group": "cosmos-2251-debris",
        "lat": 73.94838792433914,
        "lon": -163.7843343984514,
        "alt_km": 721.8675679118214,
        "timestamp": "2025-12-15T04:01:20.846636+00:00",
        "meta_object_name": "COSMOS 2251 DEB",
        "meta_object_id": "1993-036VJ",
        "meta_epoch": "2025-12-12T01:39:23.053248",
        "meta_mean_motion": 14.49993335,
        "meta_eccentricity": 0.00629257,
        "meta_inclination": 74.0101,
        "meta_ra_of_asc_node": 116.7677,
        "meta_arg_of_pericenter": 190.7051,
        "meta_mean_anomaly": 290.1646,
        "meta_ephemeris_type": 0,
        "meta_classification_type": "U",
        "meta_norad_cat_id": 34572,
        "meta_element_set_no": 999,
        "meta_rev_at_epoch": 87368,
        "meta_bstar": 0.0042166825,
        "meta_mean_motion_dot": 0.00016761,
        "meta_mean_motion_ddot": 0,
        "tle_line1": "1 34572U 93036VJ  25346.06901682  .00016761  00000+0  42167-2 0  9996",
        "tle_line2": "2 34572  74.0101 116.7677 0062925 190.7051 290.1646 14.49993335873688"
      },
      "geometry": {
        "type": "Point",
        "coordinates": [
          -163.7843343984514,
          73.94838792433914
        ]
      }
    },
    {
      "type": "Feature",
      "properties": {
        "norad_id": 34574,
        "name": "COSMOS 2251 DEB",
        "group": "cosmos-2251-debris",
        "lat": 21.861092008701384,
        "lon": -148.14907006858553,
        "alt_km": 665.0449981455349,
        "timestamp": "2025-12-15T04:01:20.846647+00:00",
        "meta_object_name": "COSMOS 2251 DEB",
        "meta_object_id": "1993-036VL",
        "meta_epoch": "2025-12-14T04:42:40.777056",
        "meta_mean_motion": 14.70629363,
        "meta_eccentricity": 0.00669423,
        "meta_inclination": 74.0697,
        "meta_ra_of_asc_node": 40.3116,
        "meta_arg_of_pericenter": 60.836,
        "meta_mean_anomaly": 355.332,
        "meta_ephemeris_type": 0,
        "meta_classification_type": "U",
        "meta_norad_cat_id": 34574,
        "meta_element_set_no": 999,
        "meta_rev_at_epoch": 88800,
        "meta_bstar": 0.00097846024,
        "meta_mean_motion_dot": 6.136e-05,
        "meta_mean_motion_ddot": 0,
        "tle_line1": "1 34574U 93036VL  25348.19630529  .00006136  00000+0  97846-3 0  9993",
        "tle_line2": "2 34574  74.0697  40.3116 0066942  60.8360 355.3320 14.70629363888009"
      },
      "geometry": {
        "type": "Point",
        "coordinates": [
          -148.14907006858553,
          21.861092008701384
        ]
      }
    },
    {
      "type": "Feature",
      "properties": {
        "norad_id": 34576,
        "name": "COSMOS 2251 DEB",
        "group": "cosmos-2251-debris",
        "lat": -6.414277569802132,
        "lon": 131.7530319359875,
        "alt_km": 710.7413376255272,
        "timestamp": "2025-12-15T04:01:20.846657+00:00",
        "meta_object_name": "COSMOS 2251 DEB",
        "meta_object_id": "1993-036VN",
        "meta_epoch": "2025-12-14T04:08:00.629664",
        "meta_mean_motion": 14.55439167,
        "meta_eccentricity": 0.00081302,
        "meta_inclination": 74.0335,
        "meta_ra_of_asc_node": 135.4825,
        "meta_arg_of_pericenter": 271.5124,
        "meta_mean_anomaly": 268.6209,
        "meta_ephemeris_type": 0,
        "meta_classification_type": "U",
        "meta_norad_cat_id": 34576,
        "meta_element_set_no": 999,
        "meta_rev_at_epoch": 88487,
        "meta_bstar": 0.00102495,
        "meta_mean_motion_dot": 4.432e-05,
        "meta_mean_motion_ddot": 0,
        "tle_line1": "1 34576U 93036VN  25348.17222951  .00004432  00000+0  10249-2 0  9997",
        "tle_line2": "2 34576  74.0335 135.4825 0008130 271.5124 268.6209 14.55439167884874"
      },
      "geometry": {
        "type": "Point",
        "coordinates": [
          131.7530319359875,
          -6.414277569802132
        ]
      }
    },
    {
      "type": "Feature",
      "properties": {
        "norad_id": 34579,
        "name": "COSMOS 2251 DEB",
        "group": "cosmos-2251-debris",
        "lat": 53.71015885746134,
        "lon": 16.45722044924878,
        "alt_km": 754.4712405367382,
        "timestamp": "2025-12-15T04:01:20.846667+00:00",
        "meta_object_name": "COSMOS 2251 DEB",
        "meta_object_id": "1993-036VR",
        "meta_epoch": "2025-12-14T03:17:45.285216",
        "meta_mean_motion": 14.45314171,
        "meta_eccentricity": 0.00275425,
        "meta_inclination": 74.0531,
        "meta_ra_of_asc_node": 221.2911,
        "meta_arg_of_pericenter": 289.7498,
        "meta_mean_anomaly": 234.8383,
        "meta_ephemeris_type": 0,
        "meta_classification_type": "U",
        "meta_norad_cat_id": 34579,
        "meta_element_set_no": 999,
        "meta_rev_at_epoch": 88194,
        "meta_bstar": 0.00050920335,
        "meta_mean_motion_dot": 1.77e-05,
        "meta_mean_motion_ddot": 0,
        "tle_line1": "1 34579U 93036VR  25348.13732969  .00001770  00000+0  50920-3 0  9994",
        "tle_line2": "2 34579  74.0531 221.2911 0027542 289.7498 234.8383 14.45314171881947"
      },
      "geometry": {
        "type": "Point",
        "coordinates": [
          16.45722044924878,
          53.71015885746134
        ]
      }
    },
    {
      "type": "Feature",
      "properties": {
        "norad_id": 34582,
        "name": "COSMOS 2251 DEB",
        "group": "cosmos-2251-debris",
        "lat": 42.01572197720381,
        "lon": -77.17680570094326,
        "alt_km": 713.1823644246206,
        "timestamp": "2025-12-15T04:01:20.846677+00:00",
        "meta_object_name": "COSMOS 2251 DEB",
        "meta_object_id": "1993-036VU",
        "meta_epoch": "2025-12-14T04:31:54.935328",
        "meta_mean_motion": 14.43335442,
        "meta_eccentricity": 0.00479334,
        "meta_inclination": 74.0199,
        "meta_ra_of_asc_node": 269.6818,
        "meta_arg_of_pericenter": 19.4717,
        "meta_mean_anomaly": 340.8256,
        "meta_ephemeris_type": 0,
        "meta_classification_type": "U",
        "meta_norad_cat_id": 34582,
        "meta_element_set_no": 999,
        "meta_rev_at_epoch": 87968,
        "meta_bstar": 0.00097644712,
        "meta_mean_motion_dot": 3.313e-05,
        "meta_mean_motion_ddot": 0,
        "tle_line1": "1 34582U 93036VU  25348.18883027  .00003313  00000+0  97645-3 0  9995",
        "tle_line2": "2 34582  74.0199 269.6818 0047933  19.4717 340.8256 14.43335442879688"
      },
      "geometry": {
        "type": "Point",
        "coordinates": [
          -77.17680570094326,
          42.01572197720381
        ]
      }
    },
    {
      "type": "Feature",
      "properties": {
        "norad_id": 34588,
        "name": "COSMOS 2251 DEB",
        "group": "cosmos-2251-debris",
        "lat": 73.85516012602805,
        "lon": -15.003234659621747,
        "alt_km": 753.444647347208,
        "timestamp": "2025-12-15T04:01:20.846688+00:00",
        "meta_object_name": "COSMOS 2251 DEB",
        "meta_object_id": "1993-036WA",
        "meta_epoch": "2025-12-14T04:49:38.237664",
        "meta_mean_motion": 14.42028408,
        "meta_eccentricity": 0.00192024,
        "meta_inclination": 74.0437,
        "meta_ra_of_asc_node": 265.5472,
        "meta_arg_of_pericenter": 318.0708,
        "meta_mean_anomaly": 154.1513,
        "meta_ephemeris_type": 0,
        "meta_classification_type": "U",
        "meta_norad_cat_id": 34588,
        "meta_element_set_no": 999,
        "meta_rev_at_epoch": 87971,
        "meta_bstar": 0.00058388697,
        "meta_mean_motion_dot": 1.895e-05,
        "meta_mean_motion_ddot": 0,
        "tle_line1": "1 34588U 93036WA  25348.20113701  .00001895  00000+0  58389-3 0  9994",
        "tle_line2": "2 34588  74.0437 265.5472 0019202 318.0708 154.1513 14.42028408879712"
      },
      "geometry": {
        "type": "Point",
        "coordinates": [
          -15.003234659621747,
          73.85516012602805
        ]
      }
    }
  ]
}